Prefecture,Branch,URL,PostalCode,Address,PhoneNumber
北海道,札幌支店,https://www.smbcnikko.co.jp/service/office/366/index.html,060-0001,北海道札幌市中央区北一条西4―2―2札幌ノースプラザ1階,011-214-7111受付時間：平日8:30〜17:30
北海道,旭川支店,https://www.smbcnikko.co.jp/service/office/340/index.html,070-0034,北海道旭川市四条通8-1703-12日本生命旭川四条通ビル9階,0166-23-0311受付時間：平日8:30〜17:30
青森県,青森支店,https://www.smbcnikko.co.jp/service/office/390/index.html,030-0801,青森県青森市新町2-2-4新町通り,017-775-2511受付時間：平日8:30〜17:30
青森県,八戸支店,https://www.smbcnikko.co.jp/service/office/294/index.html,031-0031,青森県八戸市大字番町9-6,0178-46-3211受付時間：平日8:30〜17:30
岩手県,盛岡支店,https://www.smbcnikko.co.jp/service/office/339/index.html,020-0021,岩手県盛岡市中央通1-7-25朝日生命盛岡中央通ビル1階　中央通1丁目バス停前,019-625-2525受付時間：平日8:30〜17:30
宮城県,仙台支店,https://www.smbcnikko.co.jp/service/office/359/index.html,980-0021,宮城県仙台市青葉区中央3-2-21青葉通り,022-264-9111受付時間：平日8:30〜17:30
秋田県,秋田支店,https://www.smbcnikko.co.jp/service/office/383/index.html,010-0001,秋田県秋田市中通4-12-4公営駐車場前,018-832-0025受付時間：平日8:30〜17:30
山形県,山形支店,https://www.smbcnikko.co.jp/service/office/378/index.html,990-0039,山形県山形市香澄町2-3-29駅前大通り・山交ビル向かい,023-623-1311受付時間：平日8:30〜17:30
福島県,福島支店,https://www.smbcnikko.co.jp/service/office/377/index.html,960-8041,福島県福島市大町4-4レンガ通り・東邦銀行斜め前,024-522-7111受付時間：平日8:30〜17:30
茨城県,水戸支店,https://www.smbcnikko.co.jp/service/office/375/index.html,310-0011,茨城県水戸市三の丸1-4-1水戸駅北口・銀杏坂沿い,029-221-7161受付時間：平日8:30〜17:30
栃木県,宇都宮支店,https://www.smbcnikko.co.jp/service/office/333/index.html,320-0034,栃木県宇都宮市泉町6-20宇都宮DIビル1階,028-625-0025受付時間：平日8:30〜17:30
群馬県,高崎支店,https://www.smbcnikko.co.jp/service/office/381/index.html,370-0849,群馬県高崎市八島町70ラ・メルセ1階 JR高崎駅西口,027-322-4231受付時間：平日8:30〜17:30
埼玉県,大宮支店,https://www.smbcnikko.co.jp/service/office/258/index.html,330-0854,埼玉県さいたま市大宮区桜木町1-2-1北山ビル3階 （大宮駅西口デッキ直結）,048-642-5051受付時間：平日8:30〜17:30
埼玉県,浦和支店,https://www.smbcnikko.co.jp/service/office/264/index.html,330-0063,埼玉県さいたま市浦和区高砂2-1-23浦和駅西口・県庁通り,048-831-4411受付時間：平日8:30〜17:30
埼玉県,川越支店,https://www.smbcnikko.co.jp/service/office/261/index.html,350-1122,埼玉県川越市脇田町18-6川越小川ビル2階入口（JR・東武川越駅東口正面徒歩2分）,049-228-4311受付時間：平日8:30〜17:30
埼玉県,所沢支店,https://www.smbcnikko.co.jp/service/office/263/index.html,359-1123,埼玉県所沢市日吉町11-5三井住友銀行 所沢支店内1階,04-2924-4331受付時間：平日8:30〜17:30
埼玉県,本庄深谷支店,https://www.smbcnikko.co.jp/service/office/403/index.html,367-0053,埼玉県本庄市中央1-8-7,0495-21-3211受付時間：平日8:30〜17:30
千葉県,千葉支店,https://www.smbcnikko.co.jp/service/office/256/index.html,260-0015,千葉県千葉市中央区富士見2-1-1マインズ千葉3階,043-225-1141受付時間：平日8:30〜17:30
千葉県,本八幡支店,https://www.smbcnikko.co.jp/service/office/276/index.html,272-0021,千葉県市川市八幡2-6-9JR本八幡駅北口,047-336-7111受付時間：平日8:30〜17:30
千葉県,船橋支店,https://www.smbcnikko.co.jp/service/office/259/index.html,273-0005,千葉県船橋市本町4-41-21SMBC船橋ビル4階,047-460-4646受付時間：平日8:30〜17:30
千葉県,松戸支店,https://www.smbcnikko.co.jp/service/office/262/index.html,271-8625,千葉県松戸市本町2-5松戸駅西口,047-367-1161受付時間：平日8:30〜17:30
千葉県,柏支店,https://www.smbcnikko.co.jp/service/office/265/index.html,277-0005,千葉県柏市柏1-2-38さくら柏ビル4階,04-7164-3636受付時間：平日8:30〜17:30
神奈川県,横浜支店,https://www.smbcnikko.co.jp/service/office/255/index.html,220-0004,神奈川県横浜市西区北幸1-3-23横浜ベイシェラトンホテル＆タワーズ地下1階,045-311-1431受付時間：平日8:30〜17:30
神奈川県,横浜関内支店,https://www.smbcnikko.co.jp/service/office/452/index.html,231-0047,神奈川県横浜市中区羽衣町1-3-10,045-250-1125受付時間：平日8:30〜17:30
神奈川県,青葉台支店,https://www.smbcnikko.co.jp/service/office/270/index.html,227-0062,神奈川県横浜市青葉区青葉台2-5-14SMBC青葉台ビル2階,045-982-3311受付時間：平日8:30〜17:30
神奈川県,川崎支店,https://www.smbcnikko.co.jp/service/office/253/index.html,210-0006,神奈川県川崎市川崎区砂子1-8-1川崎室町ビル5階,044-244-2221受付時間：平日8:30〜17:30
神奈川県,新百合ヶ丘支店,https://www.smbcnikko.co.jp/service/office/268/index.html,215-0004,神奈川県川崎市麻生区万福寺1-1-1新百合ヶ丘シティビル2階（新百合ヶ丘駅北口前）,044-953-6311受付時間：平日8:30〜17:30
神奈川県,鎌倉支店,https://www.smbcnikko.co.jp/service/office/307/index.html,248-0006,神奈川県鎌倉市小町1-4-1御代川ビル2階,0467-24-6660受付時間：平日8:30〜17:30
神奈川県,藤沢支店,https://www.smbcnikko.co.jp/service/office/257/index.html,251-0052,神奈川県藤沢市藤沢438-1三井住友銀行 藤沢支店内1階,0466-25-7811受付時間：平日8:30〜17:30
神奈川県,小田原支店,https://www.smbcnikko.co.jp/service/office/341/index.html,250-0011,神奈川県小田原市栄町1-1-15ミナカ小田原5階,0465-22-7161受付時間：平日8:30〜17:30
千代田区,本店,https://www.smbcnikko.co.jp/service/office/112/index.html,100-8325,東京都千代田区丸の内3-3-1有楽町駅・東京国際フォーラム前,03-3283-2525受付時間：平日8:30〜17:30
千代田区,事業法人営業部コーポレート・ビジネス営業室,https://www.smbcnikko.co.jp/service/office/144/index.html,100-6523,東京都千代田区丸の内1-5-1新丸の内ビルディング,0570-009-250受付時間：平日8:30〜17:30（お問い合わせの際は、お名前及び会社名をお伝えください）
千代田区,大手町支店,https://www.smbcnikko.co.jp/service/office/224/index.html,100-0004,東京都千代田区大手町1-6-1大手町ビル1階 (サンケイビル隣),03-3212-6611受付時間：平日8:30〜17:30
千代田区,麹町支店,https://www.smbcnikko.co.jp/service/office/231/index.html,102-0083,東京都千代田区麹町6-6-2　番町麹町ビルディング,03-3288-6011受付時間：平日8:30〜17:30
中央区,首都圏営業室,https://www.smbcnikko.co.jp/service/office/113/index.html,103-0026,東京都中央区日本橋兜町13-2兜町偕成ビル本館4階,03-5644-9700受付時間：平日8:30〜17:00
中央区,ウェルス・アドバイザリー部　第一課、第二課、第三課,https://www.smbcnikko.co.jp/service/office/121/index.html,103-6120,東京都中央区日本橋2-5-1日本橋��島屋三井ビルディング20階,03-5204-5900受付時間：平日8:30〜17:00
中央区,日本橋支店,https://www.smbcnikko.co.jp/service/office/200/index.html,103-6120,東京都中央区日本橋2-5-1日本橋��島屋三井ビルディング20階,03-3242-2525受付時間：平日8:30〜17:30
港区,赤坂支店,https://www.smbcnikko.co.jp/service/office/160/index.html,107-0052,東京都港区赤坂2-5-1S-GATE赤坂山王ビル2階 三井住友銀行 赤坂支店内,03-5561-6125受付時間：平日8:30〜17:30
新宿区,新宿支店,https://www.smbcnikko.co.jp/service/office/252/index.html,160-0022,東京都新宿区新宿4-1-6JR新宿ミライナタワー8階,03-5367-7211受付時間：平日8:30〜17:30
新宿区,新宿東口支店,https://www.smbcnikko.co.jp/service/office/457/index.html,160-0022,東京都新宿区新宿3-24-1NEWNO・GS新宿 8階,03-3225-1325受付時間：平日8:30〜17:30
台東区,上野支店,https://www.smbcnikko.co.jp/service/office/211/index.html,110-0016,東京都台東区台東4-11-4三井住友銀行御徒町ビル2階,03-3832-5371受付時間：平日8:30〜17:30
墨田区,錦糸町支店,https://www.smbcnikko.co.jp/service/office/241/index.html,130-0022,東京都墨田区江東橋4-19-4SMBC錦糸町ビル3階,03-3633-3766受付時間：平日8:30〜17:30
品川区,五反田支店,https://www.smbcnikko.co.jp/service/office/217/index.html,141-0022,東京都品川区東五反田1-14-10三井住友銀行 五反田支店内1階,03-3445-1211受付時間：平日8:30〜17:30
目黒区,自由が丘支店,https://www.smbcnikko.co.jp/service/office/249/index.html,152-0035,東京都目黒区自由が丘2-11-3SMBC自由が丘ビル2階,03-3723-2525受付時間：平日8:30〜17:30
大田区,蒲田支店,https://www.smbcnikko.co.jp/service/office/222/index.html,144-0052,東京都大田区蒲田5-41-8三井住友銀行　蒲田ビル5階,03-3731-2191受付時間：平日8:30〜17:30
世田谷区,玉川支店,https://www.smbcnikko.co.jp/service/office/228/index.html,158-0094,東京都世田谷区玉川2-24-7玉川高島屋SC前,03-3707-4711受付時間：平日8:30〜17:30
渋谷区,渋谷支店,https://www.smbcnikko.co.jp/service/office/220/index.html,150-0043,東京都渋谷区道玄坂1-2-3渋谷フクラス 地下1階　三井住友銀行 渋谷駅前支店内,03-5456-6511受付時間：平日8:30〜17:30
豊島区,池袋支店,https://www.smbcnikko.co.jp/service/office/213/index.html,171-0022,東京都豊島区南池袋2-27-9ホウライ池袋ビル4階,03-3984-3211受付時間：平日8:30〜17:30
北区,赤羽支店,https://www.smbcnikko.co.jp/service/office/226/index.html,115-0045,東京都北区赤羽2-1-15三井住友銀行 赤羽支店内,03-3901-7111受付時間：平日8:30〜17:30
練馬区,大泉支店,https://www.smbcnikko.co.jp/service/office/234/index.html,178-0063,東京都練馬区東大泉1-29-1西武池袋線大泉学園駅北口・大泉学園ゆめりあ1,03-3867-5580受付時間：平日8:30〜17:30
足立区,北千住支店,https://www.smbcnikko.co.jp/service/office/251/index.html,120-0034,東京都足立区千住2-55三井住友銀行 千住支店内2階,03-3882-8811受付時間：平日8:30〜17:30
立川市,立川支店,https://www.smbcnikko.co.jp/service/office/218/index.html,190-0012,東京都立川市曙町2-12-18JR立川駅北口前,042-524-3511受付時間：平日8:30〜17:30
武蔵野市,吉祥寺支店,https://www.smbcnikko.co.jp/service/office/242/index.html,180-0004,東京都武蔵野市吉祥寺本町1-8-10東急百貨店前,0422-21-3311受付時間：平日8:30〜17:30
調布市,調布支店,https://www.smbcnikko.co.jp/service/office/245/index.html,182-0024,東京都調布市布田1-29-2調布駅北口・旧甲州街道沿い,042-499-0511受付時間：平日8:30〜17:30
町田市,町田支店,https://www.smbcnikko.co.jp/service/office/260/index.html,194-0013,東京都町田市原町田6-3-8三井住友銀行 町田支店内2階,042-726-2525受付時間：平日8:30〜17:30
新潟県,新潟支店,https://www.smbcnikko.co.jp/service/office/357/index.html,951-8068,新潟県新潟市中央区上大川前通六番町1214‐2鏡橋交差点,025-229-1151受付時間：平日8:30〜17:30
富山県,富山支店,https://www.smbcnikko.co.jp/service/office/358/index.html,930-0094,富山県富山市安住町2-14「県庁前」電停前,076-431-7181受付時間：平日8:30〜17:30
富山県,高岡支店,https://www.smbcnikko.co.jp/service/office/342/index.html,933-0023,富山県高岡市末広町39末広町通り,0766-21-2525受付時間：平日8:30〜17:30
石川県,金沢支店,https://www.smbcnikko.co.jp/service/office/363/index.html,920-0919,石川県金沢市南町4-65百万石通り・金沢ニューグランドホテル隣,076-262-7141受付時間：平日8:30〜17:30
福井県,福井支店,https://www.smbcnikko.co.jp/service/office/370/index.html,910-0005,福井県福井市大手3-5-5アクシス大手町ビル1階,0776-21-0111受付時間：平日8:30〜17:30
山梨県,甲府支店,https://www.smbcnikko.co.jp/service/office/334/index.html,400-0031,山梨県甲府市丸の内2-2-1三井住友銀行 甲府支店内 3階,055-228-8511受付時間：平日8:30〜17:30
長野県,長野支店,https://www.smbcnikko.co.jp/service/office/386/index.html,380-0823,長野県長野市南千歳1-17-4東急シェルシェ向かい・ケイケンビル,026-269-7500受付時間：平日8:30〜17:30
長野県,松本支店,https://www.smbcnikko.co.jp/service/office/345/index.html,390-0815,長野県松本市深志1-2-11昭和ビル1階,0263-36-5511受付時間：平日8:30〜17:30
岐阜県,岐阜支店,https://www.smbcnikko.co.jp/service/office/380/index.html,500-8552,岐阜県岐阜市神田町8-2-3名鉄岐阜駅前,058-263-6111受付時間：平日8:30〜17:30
静岡県,静岡支店,https://www.smbcnikko.co.jp/service/office/362/index.html,420-0852,静岡県静岡市葵区紺屋町17-1葵タワー （JR静岡駅前）,054-254-2341受付時間：平日8:30〜17:30
静岡県,浜松支店,https://www.smbcnikko.co.jp/service/office/369/index.html,430-0933,静岡県浜松市中央区鍛冶町124鍛冶町通り・マルHビル,053-454-2161受付時間：平日8:30〜17:30
静岡県,沼津支店,https://www.smbcnikko.co.jp/service/office/376/index.html,410-0801,静岡県沼津市大手町3-4-5わたやすビル2階,055-962-5521受付時間：平日8:30〜17:30
愛知県,名古屋駅前支店,https://www.smbcnikko.co.jp/service/office/372/index.html,450-6629,愛知県名古屋市中村区名駅1-1-3JRゲートタワー 29階,052-589-5711受付時間：平日8:30〜17:30
愛知県,ウェルス・アドバイザリー部　名古屋室,https://www.smbcnikko.co.jp/service/office/319/index.html,460-0008,愛知県名古屋市中区栄3-2-3名古屋日興證券ビル5階,052-263-3681受付時間：平日8:30〜17:00
愛知県,名古屋支店,https://www.smbcnikko.co.jp/service/office/520/index.html,460-0008,愛知県名古屋市中区栄3-2-3名古屋日興證券ビル,052-263-2525受付時間：平日8:30〜17:30
愛知県,豊橋支店,https://www.smbcnikko.co.jp/service/office/331/index.html,440-0888,愛知県豊橋市駅前大通2-26-1豊橋鉄道市内線「駅前大通」そば,0532-54-9211受付時間：平日8:30〜17:30
愛知県,岡崎支店,https://www.smbcnikko.co.jp/service/office/337/index.html,444-0059,愛知県岡崎市康生通西2-15シビコ西側,0564-24-5111受付時間：平日8:30〜17:30
愛知県,豊田支店,https://www.smbcnikko.co.jp/service/office/459/index.html,471-0027,愛知県豊田市喜多町2-93三井住友銀行　豊田支店ビル2F,0565-36-6925受付時間：平日8:30〜17:30
三重県,四日市支店,https://www.smbcnikko.co.jp/service/office/371/index.html,510-0075,三重県四日市市安島1-2-27近鉄四日市駅・西口前,059-353-6211受付時間：平日8:30〜17:30
滋賀県,大津支店,https://www.smbcnikko.co.jp/service/office/344/index.html,520-0047,滋賀県大津市浜大津1-2-12京阪電車・びわ湖浜大津駅下車徒歩1分,077-526-2151受付時間：平日8:30〜17:30
京都府,京都支店,https://www.smbcnikko.co.jp/service/office/355/index.html,600-8006,京都府京都市下京区四条通堺町東入立売中之町96　四条通り・大丸斜め東側,075-251-6211受付時間：平日8:30〜17:30
大阪府,あべのハルカス支店,https://www.smbcnikko.co.jp/service/office/292/index.html,545-6024,大阪府大阪市阿倍野区阿倍野筋1-1-43あべのハルカス24階,06-6623-1025受付時間：平日8:30〜17:30
大阪府,大阪支店,https://www.smbcnikko.co.jp/service/office/401/index.html,530-0017,大阪府大阪市北区角田町8-1　大阪梅田ツインタワーズ・ノース25階,06-6313-6222受付時間：平日8:30〜17:30
大阪府,備後町支店,https://www.smbcnikko.co.jp/service/office/289/index.html,541-0045,大阪府大阪市中央区道修町3-6-1京阪神御堂筋ビル3階,06-6231-9752受付時間：平日8:30〜17:30
大阪府,難波支店,https://www.smbcnikko.co.jp/service/office/296/index.html,542-0076,大阪府大阪市中央区難波5-1-60なんばスカイオ14階,06-6643-2531受付時間：平日8:30〜17:30
大阪府,ウェルス・アドバイザリー部　大阪室,https://www.smbcnikko.co.jp/service/office/299/index.html,541-0045,大阪府大阪市中央区道修町3-6-1京阪神御堂筋ビル2階,06-6228-2999受付時間：平日8:30〜17:00
大阪府,堺支店,https://www.smbcnikko.co.jp/service/office/282/index.html,590-0075,大阪府堺市堺区南花田口町2-3-20南海高野線堺東駅・高島屋前,072-221-7221受付時間：平日8:30〜17:30
大阪府,千里中央支店,https://www.smbcnikko.co.jp/service/office/285/index.html,560-0082,大阪府豊中市新千里東町1-1-5大阪モノレール千里中央ビル2階,06-6872-5959受付時間：平日8:30〜17:30
大阪府,高槻支店,https://www.smbcnikko.co.jp/service/office/293/index.html,569-0802,大阪府高槻市北園町18-9三井住友銀行 高槻支店内,072-683-6262受付時間：平日8:30〜17:30
大阪府,枚方支店,https://www.smbcnikko.co.jp/service/office/281/index.html,573-0032,大阪府枚方市岡東町5-23京阪枚方市駅南口,072-841-0777受付時間：平日8:30〜17:30
大阪府,小阪支店,https://www.smbcnikko.co.jp/service/office/143/index.html,577-0802,大阪府東大阪市小阪本町1-2-3三井住友銀行 小阪支店内1階,06-6721-2325受付時間：平日8:30〜17:30
兵庫県,三宮支店,https://www.smbcnikko.co.jp/service/office/208/index.html,650-0021,兵庫県神戸市中央区三宮町1-5-1銀泉三宮ビル,078-392-6011受付時間：平日8:30〜17:30
兵庫県,神戸支店,https://www.smbcnikko.co.jp/service/office/356/index.html,651-0177,兵庫県神戸市中央区三宮町2-7-4トアロード沿い・三宮神社山側,078-392-6111受付時間：平日8:30〜17:30
兵庫県,姫路支店,https://www.smbcnikko.co.jp/service/office/361/index.html,670-0913,兵庫県姫路市西駅前町73姫路ターミナルスクエア2階,079-223-1661受付時間：平日8:30〜17:30
兵庫県,西宮支店,https://www.smbcnikko.co.jp/service/office/283/index.html,663-8204,兵庫県西宮市高松町11-6三井住友銀行 西宮北口支店内2階,0798-66-2091受付時間：平日8:30〜17:30
兵庫県,芦屋支店,https://www.smbcnikko.co.jp/service/office/287/index.html,659-0093,兵庫県芦屋市船戸町1-29モンテメール西館2階,0797-22-1161受付時間：平日8:30〜17:30
兵庫県,伊丹支店,https://www.smbcnikko.co.jp/service/office/133/index.html,664-0851,兵庫県伊丹市中央3-5-23銀泉伊丹ビル5階,072-775-0261受付時間：平日8:30〜17:30
兵庫県,川西支店,https://www.smbcnikko.co.jp/service/office/330/index.html,666-0015,兵庫県川西市小花1-7-9三井住友銀行川西ビル5階,072-759-2525受付時間：平日8:30〜17:30
奈良県,奈良支店,https://www.smbcnikko.co.jp/service/office/338/index.html,630-8241,奈良県奈良市高天町48-5ALPHA SQUARE3階,0742-22-1111受付時間：平日8:30〜17:30
和歌山県,和歌山支店,https://www.smbcnikko.co.jp/service/office/379/index.html,640-8154,和歌山県和歌山市六番丁24ニッセイ和歌山ビル,073-423-3271受付時間：平日8:30〜17:30
鳥取県,米子支店,https://www.smbcnikko.co.jp/service/office/389/index.html,683-0053,鳥取県米子市明治町253駅前通り・米子ワシントンホテルプラザ向かい,0859-22-7261受付時間：平日8:30〜17:30
岡山県,岡山支店,https://www.smbcnikko.co.jp/service/office/354/index.html,700-0903,岡山県岡山市北区幸町7-33ニッセイ岡山幸町ビル 市役所通り,086-224-3111受付時間：平日8:30〜17:30
広島県,広島支店,https://www.smbcnikko.co.jp/service/office/353/index.html,730-0032,広島県広島市中区立町2-30ウツミ屋立町ビル1階,082-241-2271受付時間：平日8:30〜17:30
広島県,福山支店,https://www.smbcnikko.co.jp/service/office/343/index.html,720-0063,広島県福山市元町6-11ILYA福山フロント3階,084-921-2525受付時間：平日8:30〜17:30
山口県,山口法人部,https://www.smbcnikko.co.jp/service/office/houjin_y.html,不明,不明,不明
徳島県,徳島支店,https://www.smbcnikko.co.jp/service/office/347/index.html,770-0841,徳島県徳島市八百屋町2-11ニッセイ徳島ビル2階,088-622-0151受付時間：平日8:30〜17:30
香川県,高松支店,https://www.smbcnikko.co.jp/service/office/360/index.html,760-0027,香川県高松市紺屋町2-6高松フコク生命ビル （中央通り）,087-851-5041受付時間：平日8:30〜17:30
愛媛県,松山支店,https://www.smbcnikko.co.jp/service/office/368/index.html,790-8666,愛媛県松山市三番町3-8-4三番町通り・松山中央郵便局斜め向かい,089-941-3141受付時間：平日8:30〜17:30
高知県,高知支店,https://www.smbcnikko.co.jp/service/office/382/index.html,780-0870,高知県高知市本町4-1-16　高知電気ビル本館1階,088-823-1251受付時間：平日8:30〜17:30
福岡県,北九州支店,https://www.smbcnikko.co.jp/service/office/365/index.html,802-0006,福岡県北九州市小倉北区魚町1-5-11平和通り・三井住友銀行並び,093-531-1161受付時間：平日8:30〜17:30
福岡県,福岡支店,https://www.smbcnikko.co.jp/service/office/352/index.html,810-0001,福岡県福岡市中央区天神1-10-20天神ビジネスセンター4階,092-711-2310受付時間：平日8:30〜17:30
佐賀県,佐賀支店,https://www.smbcnikko.co.jp/service/office/384/index.html,840-0801,佐賀県佐賀市駅前中央1-5-10朝日生命佐賀駅前ビル2階（JR佐賀駅南口交差点角）,0952-22-2525受付時間：平日8:30〜17:30
長崎県,長崎支店,https://www.smbcnikko.co.jp/service/office/374/index.html,850-0058,長崎県長崎市尾上町1-1ＪＲ長崎駅ビル・オフィス 6階,095-826-2161受付時間：平日8:30〜17:30
熊本県,熊本支店,https://www.smbcnikko.co.jp/service/office/364/index.html,860-0803,熊本県熊本市中央区新市街1-1シティ10ビル2階 （西銀座通り入口）,096-352-6191受付時間：平日8:30〜17:30
大分県,大分支店,https://www.smbcnikko.co.jp/service/office/335/index.html,870-0035,大分県大分市中央町1-1-5大分第一生命ビルディング,097-536-5311受付時間：平日8:30〜17:30
宮崎県,宮崎支店,https://www.smbcnikko.co.jp/service/office/373/index.html,880-0812,宮崎県宮崎市高千穂通1-6-38ニッセイ宮崎ビル （宮崎中央郵便局駅寄り）,0985-24-5151受付時間：平日8:30〜17:30
鹿児島県,鹿児島支店,https://www.smbcnikko.co.jp/service/office/385/index.html,892-0821,鹿児島県鹿児島市名山町1-2朝日通り電停前,099-225-1111受付時間：平日8:30〜17:30
沖縄県,那覇支店,https://www.smbcnikko.co.jp/service/office/397/index.html,900-0015,沖縄県那覇市久茂地2-9-7国道58号沿い・沖縄海邦銀行本店並び,098-869-3201受付時間：平日8:30〜17:30
